SMOS                    
1 36036U 09059A   26063.80637929  .00000453  00000+0  15829-3 0  9991
2 36036  98.4426 252.6545 0001032  80.7480 279.3825 14.39756237858436
YAOGAN-7                
1 36110U 09069A   26063.28581941  .00001135  00000+0  16426-3 0  9991
2 36110  98.0220 309.7231 0025176  20.5595 339.6623 14.77882479874138
TANDEM-X                
1 36605U 10030A   26063.59288367  .00001724  00000+0  85277-4 0  9995
2 36605  97.4474  72.7874 0001860  96.6077 263.5369 15.19148698870766
CARTOSAT-2B             
1 36795U 10035A   26063.85681964  .00000823  00000+0  11864-3 0  9998
2 36795  97.8560 115.2421 0012242 164.4126 195.7465 14.78820945844436
YAOGAN-10               
1 36834U 10038A   26063.86732961  .00001417  00000+0  17252-3 0  9997
2 36834  97.9082  88.0755 0001661  91.8195  32.0762 14.84989105841722
COSMO-SKYMED 4          
1 37216U 10060A   26063.80242858  .00001236  00000+0  16183-3 0  9993
2 37216  97.8851 248.9096 0001393  84.5048 275.6324 14.82155904829100
RESOURCESAT-2           
1 37387U 11015A   26063.78500494 -.00000213  00000+0 -77060-4 0  9991
2 37387  98.7732 131.9032 0006212 151.8872 208.2642 14.21485712771349
HAIYANG-2A              
1 37781U 11043A   26063.85123161 -.00000248  00000+0 -20199-3 0  9998
2 37781  99.3408  68.5286 0001095 290.2226  69.8807 13.78354282732300
RASAT                   
1 37791U 11044D   26063.84598814  .00000873  00000+0  16012-3 0  9991
2 37791  98.0567 156.8617 0020982 159.8450 338.9009 14.68047631777879
SRMSAT                  
1 37841U 11058D   26063.80884634  .00000500  00000+0  12763-3 0  9992
2 37841  19.9731 331.2453 0011875 135.6093 275.8240 14.11545483743058
PLEIADES 1A             
1 38012U 11076F   26063.86292649  .00000422  00000+0  10060-3 0  9999
2 38012  98.2057 140.3374 0001674  91.8902  33.0026 14.58534490756786
ZIYUAN 1-02C (ZY 1-02C) 
1 38038U 11079A   26063.86850125  .00000507  00000+0  18159-3 0  9990
2 38038  98.4186 133.3186 0005274 257.3628 233.7265 14.38117255744219
ARIRANG-3 (KOMPSAT-3)   
1 38338U 12025B   26063.87780273  .00000881  00000+0  18454-3 0  9995
2 38338  98.1055  23.2161 0006784  82.8628 277.3344 14.62094974736102
EXACTVIEW-1 (ADS-1B)    
1 38709U 12039C   26063.75874014  .00000217  00000+0  11239-3 0  9993
2 38709  98.9636 178.8702 0011865 111.3964 248.8481 14.24948676707830
SPOT 6                  
1 38755U 12047A   26063.85421190  .00000428  00000+0  10204-3 0  9992
2 38755  98.2233 132.3364 0001440  94.4584 265.6780 14.58536964717844
PLEIADES 1B             
1 39019U 12068A   26063.80473374  .00000847  00000+0  19222-3 0  9999
2 39019  98.2027 140.2652 0001594  87.8298 272.3084 14.58522421705634
GOKTURK 2               
1 39030U 12073A   26063.84838878  .00000912  00000+0  14122-3 0  9993
2 39030  97.6881 266.4657 0001244  54.5499 305.5827 14.75426775709126
