[{"OBJECT_NAME":"SMOS","OBJECT_ID":"2009-059A","EPOCH":"2026-03-04T19:21:11.170656","MEAN_MOTION":14.39756237,"ECCENTRICITY":0.0001032,"INCLINATION":98.4426,"RA_OF_ASC_NODE":252.6545,"ARG_OF_PERICENTER":80.748,"MEAN_ANOMALY":279.3825,"EPHEMERIS_TYPE":0,"CLASSIFICATION_TYPE":"U","NORAD_CAT_ID":36036,"ELEMENT_SET_NO":999,"REV_AT_EPOCH":85843,"BSTAR":0.00015829,"MEAN_MOTION_DOT":4.53e-6,"MEAN_MOTION_DDOT":0},{"OBJECT_NAME":"YAOGAN-7","OBJECT_ID":"2009-069A","EPOCH":"2026-03-04T06:51:34.797024","MEAN_MOTION":14.77882479,"ECCENTRICITY":0.00251763,"INCLINATION":98.022,"RA_OF_ASC_NODE":309.7231,"ARG_OF_PERICENTER":20.5595,"MEAN_ANOMALY":339.6623,"EPHEMERIS_TYPE":0,"CLASSIFICATION_TYPE":"U","NORAD_CAT_ID":36110,"ELEMENT_SET_NO":999,"REV_AT_EPOCH":87413,"BSTAR":0.00016426407,"MEAN_MOTION_DOT":1.135e-5,"MEAN_MOTION_DDOT":0},{"OBJECT_NAME":"TANDEM-X","OBJECT_ID":"2010-030A","EPOCH":"2026-03-04T14:13:45.149088","MEAN_MOTION":15.19148698,"ECCENTRICITY":0.000186,"INCLINATION":97.4474,"RA_OF_ASC_NODE":72.7874,"ARG_OF_PERICENTER":96.6077,"MEAN_ANOMALY":263.5369,"EPHEMERIS_TYPE":0,"CLASSIFICATION_TYPE":"U","NORAD_CAT_ID":36605,"ELEMENT_SET_NO":999,"REV_AT_EPOCH":87076,"BSTAR":8.5277e-5,"MEAN_MOTION_DOT":1.724e-5,"MEAN_MOTION_DDOT":0},{"OBJECT_NAME":"CARTOSAT-2B","OBJECT_ID":"2010-035A","EPOCH":"2026-03-04T20:33:49.216896","MEAN_MOTION":14.78820945,"ECCENTRICITY":0.0012242,"INCLINATION":97.856,"RA_OF_ASC_NODE":115.2421,"ARG_OF_PERICENTER":164.4126,"MEAN_ANOMALY":195.7465,"EPHEMERIS_TYPE":0,"CLASSIFICATION_TYPE":"U","NORAD_CAT_ID":36795,"ELEMENT_SET_NO":999,"REV_AT_EPOCH":84443,"BSTAR":0.00011864,"MEAN_MOTION_DOT":8.23e-6,"MEAN_MOTION_DDOT":0},{"OBJECT_NAME":"YAOGAN-10","OBJECT_ID":"2010-038A","EPOCH":"2026-03-04T20:48:57.278304","MEAN_MOTION":14.84989105,"ECCENTRICITY":0.0001661,"INCLINATION":97.9082,"RA_OF_ASC_NODE":88.0755,"ARG_OF_PERICENTER":91.8195,"MEAN_ANOMALY":32.0762,"EPHEMERIS_TYPE":0,"CLASSIFICATION_TYPE":"U","NORAD_CAT_ID":36834,"ELEMENT_SET_NO":999,"REV_AT_EPOCH":84172,"BSTAR":0.00017252,"MEAN_MOTION_DOT":1.417e-5,"MEAN_MOTION_DDOT":0},{"OBJECT_NAME":"COSMO-SKYMED 4","OBJECT_ID":"2010-060A","EPOCH":"2026-03-04T19:15:29.829312","MEAN_MOTION":14.82155904,"ECCENTRICITY":0.0001393,"INCLINATION":97.8851,"RA_OF_ASC_NODE":248.9096,"ARG_OF_PERICENTER":84.5048,"MEAN_ANOMALY":275.6324,"EPHEMERIS_TYPE":0,"CLASSIFICATION_TYPE":"U","NORAD_CAT_ID":37216,"ELEMENT_SET_NO":999,"REV_AT_EPOCH":82910,"BSTAR":0.00016183,"MEAN_MOTION_DOT":1.236e-5,"MEAN_MOTION_DDOT":0},{"OBJECT_NAME":"RESOURCESAT-2","OBJECT_ID":"2011-015A","EPOCH":"2026-03-04T18:50:24.426816","MEAN_MOTION":14.21485712,"ECCENTRICITY":0.0006212,"INCLINATION":98.7732,"RA_OF_ASC_NODE":131.9032,"ARG_OF_PERICENTER":151.8872,"MEAN_ANOMALY":208.2642,"EPHEMERIS_TYPE":0,"CLASSIFICATION_TYPE":"U","NORAD_CAT_ID":37387,"ELEMENT_SET_NO":999,"REV_AT_EPOCH":77134,"BSTAR":-7.706e-5,"MEAN_MOTION_DOT":-2.13e-6,"MEAN_MOTION_DDOT":0},{"OBJECT_NAME":"HAIYANG-2A","OBJECT_ID":"2011-043A","EPOCH":"2026-03-04T20:25:46.411104","MEAN_MOTION":13.78354282,"ECCENTRICITY":0.0001095,"INCLINATION":99.3408,"RA_OF_ASC_NODE":68.5286,"ARG_OF_PERICENTER":290.2226,"MEAN_ANOMALY":69.8807,"EPHEMERIS_TYPE":0,"CLASSIFICATION_TYPE":"U","NORAD_CAT_ID":37781,"ELEMENT_SET_NO":999,"REV_AT_EPOCH":73230,"BSTAR":-0.00020199,"MEAN_MOTION_DOT":-2.48e-6,"MEAN_MOTION_DDOT":0},{"OBJECT_NAME":"RASAT","OBJECT_ID":"2011-044D","EPOCH":"2026-03-04T20:18:13.375296","MEAN_MOTION":14.68047631,"ECCENTRICITY":0.0020982,"INCLINATION":98.0567,"RA_OF_ASC_NODE":156.8617,"ARG_OF_PERICENTER":159.845,"MEAN_ANOMALY":338.9009,"EPHEMERIS_TYPE":0,"CLASSIFICATION_TYPE":"U","NORAD_CAT_ID":37791,"ELEMENT_SET_NO":999,"REV_AT_EPOCH":77787,"BSTAR":0.00016012,"MEAN_MOTION_DOT":8.73e-6,"MEAN_MOTION_DDOT":0},{"OBJECT_NAME":"SRMSAT","OBJECT_ID":"2011-058D","EPOCH":"2026-03-04T19:24:44.323776","MEAN_MOTION":14.11545483,"ECCENTRICITY":0.0011875,"INCLINATION":19.9731,"RA_OF_ASC_NODE":331.2453,"ARG_OF_PERICENTER":135.6093,"MEAN_ANOMALY":275.824,"EPHEMERIS_TYPE":0,"CLASSIFICATION_TYPE":"U","NORAD_CAT_ID":37841,"ELEMENT_SET_NO":999,"REV_AT_EPOCH":74305,"BSTAR":0.00012763,"MEAN_MOTION_DOT":5.0e-6,"MEAN_MOTION_DDOT":0},{"OBJECT_NAME":"PLEIADES 1A","OBJECT_ID":"2011-076F","EPOCH":"2026-03-04T20:42:36.848736","MEAN_MOTION":14.5853449,"ECCENTRICITY":0.0001674,"INCLINATION":98.2057,"RA_OF_ASC_NODE":140.3374,"ARG_OF_PERICENTER":91.8902,"MEAN_ANOMALY":33.0026,"EPHEMERIS_TYPE":0,"CLASSIFICATION_TYPE":"U","NORAD_CAT_ID":38012,"ELEMENT_SET_NO":999,"REV_AT_EPOCH":75678,"BSTAR":0.0001006,"MEAN_MOTION_DOT":4.22e-6,"MEAN_MOTION_DDOT":0},{"OBJECT_NAME":"ZIYUAN 1-02C (ZY 1-02C)","OBJECT_ID":"2011-079A","EPOCH":"2026-03-04T20:50:38.508000","MEAN_MOTION":14.38117255,"ECCENTRICITY":0.0005274,"INCLINATION":98.4186,"RA_OF_ASC_NODE":133.3186,"ARG_OF_PERICENTER":257.3628,"MEAN_ANOMALY":233.7265,"EPHEMERIS_TYPE":0,"CLASSIFICATION_TYPE":"U","NORAD_CAT_ID":38038,"ELEMENT_SET_NO":999,"REV_AT_EPOCH":74421,"BSTAR":0.00018159,"MEAN_MOTION_DOT":5.07e-6,"MEAN_MOTION_DDOT":0},{"OBJECT_NAME":"ARIRANG-3 (KOMPSAT-3)","OBJECT_ID":"2012-025B","EPOCH":"2026-03-04T21:04:02.155872","MEAN_MOTION":14.62094974,"ECCENTRICITY":0.0006784,"INCLINATION":98.1055,"RA_OF_ASC_NODE":23.2161,"ARG_OF_PERICENTER":82.8628,"MEAN_ANOMALY":277.3344,"EPHEMERIS_TYPE":0,"CLASSIFICATION_TYPE":"U","NORAD_CAT_ID":38338,"ELEMENT_SET_NO":999,"REV_AT_EPOCH":73610,"BSTAR":0.00018454,"MEAN_MOTION_DOT":8.81e-6,"MEAN_MOTION_DDOT":0},{"OBJECT_NAME":"EXACTVIEW-1 (ADS-1B)","OBJECT_ID":"2012-039C","EPOCH":"2026-03-04T18:12:35.148096","MEAN_MOTION":14.24948676,"ECCENTRICITY":0.0011865,"INCLINATION":98.9636,"RA_OF_ASC_NODE":178.8702,"ARG_OF_PERICENTER":111.3964,"MEAN_ANOMALY":248.8481,"EPHEMERIS_TYPE":0,"CLASSIFICATION_TYPE":"U","NORAD_CAT_ID":38709,"ELEMENT_SET_NO":999,"REV_AT_EPOCH":70783,"BSTAR":0.00011239,"MEAN_MOTION_DOT":2.17e-6,"MEAN_MOTION_DDOT":0},{"OBJECT_NAME":"SPOT 6","OBJECT_ID":"2012-047A","EPOCH":"2026-03-04T20:30:03.908160","MEAN_MOTION":14.58536964,"ECCENTRICITY":0.000144,"INCLINATION":98.2233,"RA_OF_ASC_NODE":132.3364,"ARG_OF_PERICENTER":94.4584,"MEAN_ANOMALY":265.678,"EPHEMERIS_TYPE":0,"CLASSIFICATION_TYPE":"U","NORAD_CAT_ID":38755,"ELEMENT_SET_NO":999,"REV_AT_EPOCH":71784,"BSTAR":0.00010204,"MEAN_MOTION_DOT":4.28e-6,"MEAN_MOTION_DDOT":0},{"OBJECT_NAME":"PLEIADES 1B","OBJECT_ID":"2012-068A","EPOCH":"2026-03-04T19:18:48.995136","MEAN_MOTION":14.58522421,"ECCENTRICITY":0.0001594,"INCLINATION":98.2027,"RA_OF_ASC_NODE":140.2652,"ARG_OF_PERICENTER":87.8298,"MEAN_ANOMALY":272.3084,"EPHEMERIS_TYPE":0,"CLASSIFICATION_TYPE":"U","NORAD_CAT_ID":39019,"ELEMENT_SET_NO":999,"REV_AT_EPOCH":70563,"BSTAR":0.00019222,"MEAN_MOTION_DOT":8.47e-6,"MEAN_MOTION_DDOT":0},{"OBJECT_NAME":"GOKTURK 2","OBJECT_ID":"2012-073A","EPOCH":"2026-03-04T20:21:40.790592","MEAN_MOTION":14.75426775,"ECCENTRICITY":0.0001244,"INCLINATION":97.6881,"RA_OF_ASC_NODE":266.4657,"ARG_OF_PERICENTER":54.5499,"MEAN_ANOMALY":305.5827,"EPHEMERIS_TYPE":0,"CLASSIFICATION_TYPE":"U","NORAD_CAT_ID":39030,"ELEMENT_SET_NO":999,"REV_AT_EPOCH":70912,"BSTAR":0.00014122,"MEAN_MOTION_DOT":9.12e-6,"MEAN_MOTION_DDOT":0}]
